[
  {
    "name": "KUIPER-00250",
    "noradId": "67155",
    "line1": "1 67155U 25301Y   26161.33831367  .00001026  00000+0  16358-3 0  9999",
    "line2": "2 67155  51.9000  20.9073 0000793 106.9303 253.1746 14.79930933 27413"
  },
  {
    "name": "KUIPER-00251",
    "noradId": "67156",
    "line1": "1 67156U 25301Z   26161.28427536  .00001781  00000+0  26256-3 0  9999",
    "line2": "2 67156  51.9004   8.7088 0000801 170.8077 189.2900 14.79934518 27735"
  },
  {
    "name": "KUIPER-00252",
    "noradId": "67157",
    "line1": "1 67157U 25301AA  26161.28157409  .00000473  00000+0  91121-4 0  9990",
    "line2": "2 67157  51.9014  11.1722 0000753 103.9450 256.1596 14.79923502 27510"
  },
  {
    "name": "KUIPER-00261",
    "noradId": "67158",
    "line1": "1 67158U 25301AB  26160.89937721  .00001843  00000+0  27075-3 0  9998",
    "line2": "2 67158  51.9032  22.9102 0000638  98.7264 261.3771 14.79932995 27316"
  },
  {
    "name": "KUIPER-00265",
    "noradId": "67159",
    "line1": "1 67159U 25301AC  26160.91696773 -.00001259  00000+0 -13619-3 0  9993",
    "line2": "2 67159  51.9025  37.8078 0000818  95.0621 265.0435 14.79924444 27142"
  },
  {
    "name": "KUIPER-00159",
    "noradId": "67764",
    "line1": "1 67764U 26030A   26161.60713406  .00033372  00000+0  88222-3 0  9996",
    "line2": "2 67764  51.8828 130.1904 0007067  27.7723 332.3641 15.38089016 19384"
  },
  {
    "name": "KUIPER-00160",
    "noradId": "67765",
    "line1": "1 67765U 26030B   26161.21869391  .00020949  00000+0  55297-3 0  9991",
    "line2": "2 67765  51.8804 132.0449 0006467  34.5356 325.6051 15.38404732 19325"
  },
  {
    "name": "KUIPER-00177",
    "noradId": "67766",
    "line1": "1 67766U 26030C   26161.26903147  .00001817  00000+0  26726-3 0  9993",
    "line2": "2 67766  51.8991 163.7366 0000495  80.3290 279.7728 14.79933136 18882"
  },
  {
    "name": "KUIPER-00178",
    "noradId": "67767",
    "line1": "1 67767U 26030D   26161.28500316  .00001636  00000+0  26319-3 0  9994",
    "line2": "2 67767  51.8995 163.4665 0000488  38.3620 321.7376 14.76489364 18892"
  },
  {
    "name": "KUIPER-00180",
    "noradId": "67768",
    "line1": "1 67768U 26030E   26161.24064904 -.00001492  00000+0 -16671-3 0  9991",
    "line2": "2 67768  51.8952 158.8541 0000501  59.2829 300.8183 14.79927333 18953"
  },
  {
    "name": "KUIPER-00197",
    "noradId": "67769",
    "line1": "1 67769U 26030F   26161.58335648 -.00038021  00000+0 -54303-2 0  9996",
    "line2": "2 67769  51.8961 137.1216 0002297  91.8228 298.4108 14.76330202  5698"
  },
  {
    "name": "KUIPER-00198",
    "noradId": "67770",
    "line1": "1 67770U 26030G   26161.28251670  .00002217  00000+0  31967-3 0  9995",
    "line2": "2 67770  51.8961 151.1673 0000539  60.5795 299.5221 14.79931343 19062"
  },
  {
    "name": "KUIPER-00199",
    "noradId": "67771",
    "line1": "1 67771U 26030H   26161.21197916  .00031899  00000+0  89678-3 0  9991",
    "line2": "2 67771  51.8798 133.4675 0011597  32.2158 327.9534 15.36162449 19308"
  },
  {
    "name": "KUIPER-00200",
    "noradId": "67772",
    "line1": "1 67772U 26030J   26161.23703200  .00008543  00000+0  41728-3 0  9997",
    "line2": "2 67772  51.8875 139.3671 0003163  65.6880 294.4429 15.19025828 19220"
  },
  {
    "name": "KUIPER-00203",
    "noradId": "67773",
    "line1": "1 67773U 26030K   26161.33113419  .00002018  00000+0  29368-3 0  9993",
    "line2": "2 67773  51.9046 168.4875 0000526  66.6119 293.4899 14.79923724 18829"
  },
  {
    "name": "KUIPER-00205",
    "noradId": "67774",
    "line1": "1 67774U 26030L   26161.58335648 -.00031396  00000+0 -26098-2 0  9990",
    "line2": "2 67774  51.8953 132.9317 0005324 349.4863  88.7554 14.98141747  2848"
  },
  {
    "name": "KUIPER-00208",
    "noradId": "67775",
    "line1": "1 67775U 26030M   26161.28843529  .00001643  00000+0  26470-3 0  9995",
    "line2": "2 67775  51.8961 160.2781 0007526  13.8132 346.3034 14.76437650 18934"
  },
  {
    "name": "KUIPER-00209",
    "noradId": "67776",
    "line1": "1 67776U 26030N   26161.27442418  .00002018  00000+0  29362-3 0  9997",
    "line2": "2 67776  51.8980 158.7928 0000421   0.2027 359.8935 14.79936481 18951"
  },
  {
    "name": "KUIPER-00213",
    "noradId": "67777",
    "line1": "1 67777U 26030P   26161.51348301  .00002019  00000+0  29374-3 0  9995",
    "line2": "2 67777  51.8942 155.2288 0000851  73.1563 286.9492 14.79932753 19027"
  },
  {
    "name": "KUIPER-00214",
    "noradId": "67778",
    "line1": "1 67778U 26030Q   26161.27982697  .00000872  00000+0  14343-3 0  9996",
    "line2": "2 67778  51.8979 153.7579 0000563  74.3029 285.7995 14.79927166 19021"
  },
  {
    "name": "KUIPER-00215",
    "noradId": "67779",
    "line1": "1 67779U 26030R   26161.58335648 -.00035894  00000+0 -51116-2 0  9991",
    "line2": "2 67779  51.8967 138.9681 0000489  23.9007 325.1603 14.76428788  5664"
  },
  {
    "name": "KUIPER-00218",
    "noradId": "67780",
    "line1": "1 67780U 26030S   26161.27233023  .00001722  00000+0  27591-3 0  9995",
    "line2": "2 67780  51.8960 156.1581 0000514  59.8689 300.2323 14.76430471 18998"
  },
  {
    "name": "KUIPER-00220",
    "noradId": "67781",
    "line1": "1 67781U 26030T   26161.58335648 -.00030064  00000+0 -17470-2 0  9993",
    "line2": "2 67781  51.8879 133.6652 0010304  40.1425 294.5755 15.11385101  5838"
  },
  {
    "name": "KUIPER-00222",
    "noradId": "67782",
    "line1": "1 67782U 26030U   26161.24875618 -.00001732  00000+0 -19823-3 0  9998",
    "line2": "2 67782  51.8955 151.4635 0000502  59.6594 300.4418 14.79925582 19052"
  },
  {
    "name": "KUIPER-00223",
    "noradId": "67783",
    "line1": "1 67783U 26030V   26161.22308623  .00002043  00000+0  29716-3 0  9990",
    "line2": "2 67783  51.9002 143.8629 0000880  82.6177 277.4886 14.79903721 19162"
  },
  {
    "name": "KUIPER-00225",
    "noradId": "67784",
    "line1": "1 67784U 26030W   26161.58335648 -.00013228  00000+0 -17091-2 0  9998",
    "line2": "2 67784  51.8948 147.4410 0001002  85.7309  64.2239 14.79942382  5702"
  },
  {
    "name": "KUIPER-00226",
    "noradId": "67785",
    "line1": "1 67785U 26030X   26161.18968456 -.00005906  00000+0 -23172-3 0  9996",
    "line2": "2 67785  51.8803 139.8860 0019235  37.7356 322.4970 15.23079873 19211"
  },
  {
    "name": "KUIPER-00259",
    "noradId": "67786",
    "line1": "1 67786U 26030Y   26161.58335648  .00030266  00000+0  40866-2 0  9995",
    "line2": "2 67786  51.8964 147.3380 0002045  65.0556 267.9845 14.78829095  3178"
  },
  {
    "name": "KUIPER-00260",
    "noradId": "67787",
    "line1": "1 67787U 26030Z   26161.17662419  .00001848  00000+0  29385-3 0  9998",
    "line2": "2 67787  51.8994 146.6289 0001384 173.6353 186.4626 14.76425696 19028"
  },
  {
    "name": "KUIPER-00262",
    "noradId": "67788",
    "line1": "1 67788U 26030AA  26161.22027889  .00002039  00000+0  29598-3 0  9990",
    "line2": "2 67788  51.8997 146.4564 0000371  92.0953 268.0052 14.79987172 19127"
  },
  {
    "name": "KUIPER-00266",
    "noradId": "67789",
    "line1": "1 67789U 26030AB  26161.58335648 -.00049067  00000+0 -64426-2 0  9997",
    "line2": "2 67789  51.8976 142.3511 0004454  71.6265 229.4253 14.80000332  5739"
  },
  {
    "name": "KUIPER-00268",
    "noradId": "67790",
    "line1": "1 67790U 26030AC  26161.22586072  .00002380  00000+0  34109-3 0  9990",
    "line2": "2 67790  51.9025 141.4335 0000997  92.6887 267.4189 14.79931781 19196"
  },
  {
    "name": "KUIPER-00270",
    "noradId": "67791",
    "line1": "1 67791U 26030AD  26161.58335648 -.00026446  00000+0 -13268-2 0  9994",
    "line2": "2 67791  51.8892 132.2990 0012193  23.9665 323.2738 15.16490046  3296"
  },
  {
    "name": "KUIPER-00274",
    "noradId": "67792",
    "line1": "1 67792U 26030AE  26161.58335648 -.00029509  00000+0 -38646-2 0  9995",
    "line2": "2 67792  51.8996 152.3386 0001401 114.7024 243.6062 14.79868462  4972"
  },
  {
    "name": "KUIPER-00275",
    "noradId": "67793",
    "line1": "1 67793U 26030AF  26161.58335648 -.01605963  00000+0 -12909+0 0  9992",
    "line2": "2 67793  51.8927 133.3993 0009194  37.8981  58.0603 15.02753103  3907"
  },
  {
    "name": "KUIPER-00276",
    "noradId": "67794",
    "line1": "1 67794U 26030AG  26161.58335648 -.00073922  00000+0 -51071-2 0  9992",
    "line2": "2 67794  51.8896 138.6053 0017283   7.7100 106.4657 15.05419736  5470"
  },
  {
    "name": "KUIPER-00279",
    "noradId": "67795",
    "line1": "1 67795U 26030AH  26161.58335648 -.00010556  00000+0 -34745-3 0  9997",
    "line2": "2 67795  51.8818 131.3160 0008584  22.3390  34.9046 15.29868180  5780"
  },
  {
    "name": "KUIPER-00131",
    "noradId": "68573",
    "line1": "1 68573U 26072A   26161.47173364  .00000776  00000+0  13083-3 0  9994",
    "line2": "2 68573  51.8994 225.3444 0000452  89.7003 270.4011 14.79926517 10129"
  },
  {
    "name": "KUIPER-00189",
    "noradId": "68574",
    "line1": "1 68574U 26072B   26161.49792811  .00001467  00000+0  23985-3 0  9991",
    "line2": "2 68574  51.8976 227.6690 0001086 317.0425  43.0451 14.76372215 10092"
  },
  {
    "name": "KUIPER-00192",
    "noradId": "68575",
    "line1": "1 68575U 26072C   26161.47440071  .00002413  00000+0  34541-3 0  9990",
    "line2": "2 68575  51.8985 222.8310 0000562  84.7658 275.3369 14.79928495 10169"
  },
  {
    "name": "KUIPER-00193",
    "noradId": "68576",
    "line1": "1 68576U 26072D   26161.58335648  .00048784  00000+0  41512-2 0  9992",
    "line2": "2 68576  51.8941 212.2381 0002629  35.5270 171.7977 14.97331432  5531"
  },
  {
    "name": "KUIPER-00194",
    "noradId": "68577",
    "line1": "1 68577U 26072E   26161.44311475  .00002367  00000+0  33904-3 0  9994",
    "line2": "2 68577  51.9014 220.4738 0000485 229.9615 130.1305 14.79981693 10193"
  },
  {
    "name": "KUIPER-00229",
    "noradId": "68578",
    "line1": "1 68578U 26072F   26161.43480844  .00015216  00000+0  21947-2 0  9991",
    "line2": "2 68578  51.9020 225.4706 0002912 233.4279 126.6414 14.76410618 10129"
  }
]